CZ-4B R/B               
1 28059U 03049C   25034.52787014  .00001223  00000+0  29466-3 0  9995
2 28059  98.6443   9.9350 0048913  11.4561 348.7736 14.54442400128567
CZ-2C R/B               
1 28222U 04012C   25034.61889450  .00023524  00000+0  63672-3 0  9990
2 28222  97.7863  65.4544 0026036 317.4003  42.5221 15.37347672142515
SL-16 R/B               
1 28353U 04021B   25034.27398767  .00000377  00000+0  22129-3 0  9996
2 28353  71.0018 350.6443 0007170 279.8377  80.1935 14.14512298 66356
CZ-4B R/B               
1 28415U 04035C   25034.57564266  .00011476  00000+0  50530-3 0  9991
2 28415  97.3978  69.6449 0036560 297.7546  61.9985 15.21389429119073
CZ-2C R/B               
1 28480U 04046B   25034.40960726  .00000468  00000+0  19052-3 0  9991
2 28480  98.1872 329.4612 0138722 255.4890 103.0869 14.26716219 51565
ARIANE 5 R/B            
1 28499U 04049H   25034.38122475  .00003139  00000+0  36072-3 0  9991
2 28499  98.2116 184.4088 0085647 204.1511 155.5676 14.83961725 86542
CZ-2D R/B               
1 28738U 05024B   25034.55469337  .00023365  00000+0  64603-3 0  9995
2 28738  97.3705  37.5555 0008846  52.5614 307.6434 15.36990762 78066
ALOS (DAICHI)           
1 28931U 06002A   25034.47646675  .00004067  00000+0  72038-3 0  9999
2 28931  98.0688 349.3174 0002323  99.0593 261.0875 14.67846289 14874
H-2A R/B                
1 28932U 06002B   25034.26207101  .00016040  00000+0  10067-2 0  9991
2 28932  98.1986 145.9582 0062492 152.4541 208.0021 15.07746519 34078
RESURS-DK 1             
1 29228U 06021A   25034.57529588  .00005346  00000+0  33629-3 0  9998
2 29228  69.9341 187.1800 0004944 334.1708  25.9209 15.09798922 27221
GENESIS 1               
1 29252U 06029A   25034.53449047  .00062208  00000+0  71568-3 0  9994
2 29252  64.5064  93.9715 0034480 302.2969  57.4836 15.60890395 26402
CZ-4B R/B               
1 29507U 06046C   25034.60829281  .00007335  00000+0  42570-3 0  9997
2 29507  97.6150  75.6068 0036440 203.0050 156.9550 15.11876627999633
CZ-2C R/B               
1 31114U 07010B   25034.38716168  .00000317  00000+0  16489-3 0  9993
2 31114  98.3589 163.4138 0059414  16.6560 343.6551 14.20041474923049
COSMO-SKYMED 1          
1 31598U 07023A   25034.62956173  .00001377  00000+0  17956-3 0  9999
2 31598  97.8884 220.4464 0001287  82.9952 277.1407 14.82144182955403
GENESIS 2               
1 31789U 07028A   25034.58123967  .00052290  00000+0  72882-3 0  9997
2 31789  64.4819 141.8970 0013750 314.6002  45.4016 15.56502662973179
COSMOS 2428             
1 31792U 07029A   25034.23301740  .00000029  00000+0  41485-4 0  9990
2 31792  70.9457 321.8578 0002915  77.7070 282.4378 14.12852469907670
SL-16 R/B               
1 31793U 07029B   25034.18403878  .00000002  00000+0  26086-4 0  9991
2 31793  70.9764 292.1214 0002899 266.7030 255.9607 14.14744843908866
KORONAS-FOTON           
1 33504U 09003A   25034.27493182  .00014232  00000+0  44182-3 0  9990
2 33504  82.4370 327.7553 0014183 134.9714 225.2681 15.33150739884349
CZ-2C R/B               
1 37731U 11030B   25034.50712596  .00003055  00000+0  40576-3 0  9992
2 37731  97.7979 356.6965 0053462 207.5250 270.2763 14.79511037731031
H-2A R/B                
1 38341U 12025E   25034.41657786  .00006283  00000+0  61843-3 0  9990
2 38341  98.4284 327.0056 0047909 174.6964 185.4770 14.91618759688628
CUSAT 2 & FALCON 9 R/B  
1 39271U 13055G   25034.35543704  .01312403 -87284-6  81239-3 0  9997
2 39271  80.8930 147.6244 0059116 225.1723 192.2123 16.13733850601222
SHIJIAN-16 (SJ-16)      
1 39358U 13057A   25034.60314932  .00002247  00000+0  23148-3 0  9991
2 39358  74.9709 219.6737 0016770 358.2594   1.8532 14.90656906612002
SL-4 R/B                
1 39679U 14021B   25034.41067385  .00014815  00000+0  44565-3 0  9995
2 39679  51.6081 107.6867 0121809  99.8711 261.6044 15.27569311595011
ALOS-2                  
1 39766U 14029A   25034.54981363  .00004323  00000+0  58555-3 0  9992
2 39766  97.9221 133.8789 0001344 111.8921 248.2433 14.79457166577855
YAOGAN-29               
1 41038U 15069A   25034.62168584  .00001095  00000+0  14359-3 0  9990
2 41038  98.0455  56.3531 0001587 151.7902 208.3397 14.82374849496740
ASTRO-H (HITOMI)        
1 41337U 16012A   25034.43083835  .00006084  00000+0  39263-3 0  9999
2 41337  31.0018  46.9476 0010348 282.8837  77.0644 15.06775057491895
HXMT (HUIYAN)           
1 42758U 17034A   25034.56123537  .00013469  00000+0  59772-3 0  9992
2 42758  43.0140  67.9992 0010708 159.5370 200.5910 15.21408243421990
CZ-2C R/B               
1 43521U 18054D   25034.55516860  .00030740  00000+0  67258-3 0  9997
2 43521  35.1414  77.9332 0041278  90.0698 270.4755 15.42230836366436
SAOCOM 1A               
1 43641U 18076A   25034.57059024  .00001191  00000+0  15610-3 0  9993
2 43641  97.8864 223.4625 0001362  89.1079 271.0290 14.82169084342241
H-2A R/B                
1 43682U 18084L   25034.31380371  .00021444  00000+0  85164-3 0  9995
2 43682  98.8568 167.3625 0036580 313.7124  46.1081 15.24746697344598
SAOCOM 1B               
1 46265U 20059A   25034.60188491  .00001166  00000+0  15300-3 0  9995
2 46265  97.8870 222.5962 0001390  87.9939 272.1433 14.82162943239635
CSS (TIANHE)            
1 48274U 21035A   25034.59765249  .00034673  00000+0  43760-3 0  9992
2 48274  41.4656 113.8030 0002605  76.7800 283.3329 15.58860782215277
COSMOS 2550             
1 48865U 21056A   25034.57741241  .00000718  00000+0  27649-4 0  9997
2 48865  67.1419 168.2971 0008388 270.5183  89.5010 15.33831104202262
CZ-2C R/B               
1 52794U 22058K   25034.57925131  .00020124  00000+0  57864-3 0  9992
2 52794  50.1956 176.7954 0065552 345.6764  14.2338 15.33607199148505
XRISM                   
1 57800U 23137A   25034.00616038  .00010800  00000+0  71760-3 0  9996
2 57800  31.0039 338.2132 0008713 341.4548  18.5771 15.05942530 77375
ACS3                    
1 59588U 24077B   25034.61590155  .00009461  00000+0  97324-2 0  9997
2 59588  97.5019  57.2192 0060107 205.3783 154.4417 13.75443046 39113
